Name,Park Code,Region,State,lat,lng,Park Website,See Observations in iNaturalist
Abraham Lincoln Birthplace National Historical Park,ABLI,SER,KY,37.61197573,-85.64442062,https://www.nps.gov/ABLI/index.htm,http://www.inaturalist.org/observations?place_id=90763&subview=grid
Acadia National Park,ACAD,NER,ME,44.3507318,-68.24410999,https://www.nps.gov/ACAD/index.htm,http://www.inaturalist.org/observations?place_id=49610&subview=grid
Adams National Historical Park,ADAM,NER,MA,42.25659415,-71.01254939,https://www.nps.gov/ADAM/index.htm,http://www.inaturalist.org/observations?place_id=95081&subview=grid
African Burial Ground National Monument,AFBG,NER,NY,40.71454948,-74.00432891,https://www.nps.gov/AFBG/index.htm,http://www.inaturalist.org/observations?place_id=95082&subview=grid
Agate Fossil Beds National Monument,AGFO,MWR,NE,42.42147185,-103.743999,https://www.nps.gov/AGFO/index.htm,http://www.inaturalist.org/observations?place_id=95089&subview=grid
Alagnak Wild River,ALAG,AKR,AK,59.00306616,-156.082237,https://www.nps.gov/ALAG/index.htm,http://www.inaturalist.org/observations?place_id=95091&subview=grid
Alibates Flint Quarries National Monument,ALFL,IMR,TX,35.58196523,-101.6717013,https://www.nps.gov/ALFL/index.htm,http://www.inaturalist.org/observations?place_id=95084&subview=grid
Ala Kahakai National Historic Trail,ALKA,PWR,HI,19.13153705,-155.5067587,https://www.nps.gov/ALKA/index.htm,http://www.inaturalist.org/observations?place_id=97396&subview=grid
Allegheny Portage Railroad National Historic Site,ALPO,NER,PA,40.44677136,-78.53186093,https://www.nps.gov/ALPO/index.htm,http://www.inaturalist.org/observations?place_id=72632&subview=grid
Amistad National Recreation Area,AMIS,IMR,TX,29.57479057,-101.2959346,https://www.nps.gov/AMIS/index.htm,http://www.inaturalist.org/observations?place_id=95085&subview=grid
American Memorial Park,AMME,PWR,MP,15.21501517,145.7240013,https://www.nps.gov/AMME/index.htm,http://www.inaturalist.org/observations?place_id=97397&subview=grid
Andersonville National Historic Site,ANDE,SER,GA,32.19830322,-84.12989005,https://www.nps.gov/ANDE/index.htm,http://www.inaturalist.org/observations?place_id=95086&subview=grid
Aniakchak National Monument,ANIA,AKR,AK,56.89544341,-158.1178088,https://www.nps.gov/ANIA/index.htm,http://www.inaturalist.org/observations?place_id=95092&subview=grid
Andrew Johnson National Historic Site,ANJO,SER,TN,36.15536303,-82.8381405,https://www.nps.gov/ANJO/index.htm,http://www.inaturalist.org/observations?place_id=95093&subview=grid
Antietam National Battlefield,ANTI,NCR,MD,39.47010671,-77.7380518,https://www.nps.gov/ANTI/index.htm,http://www.inaturalist.org/observations?place_id=97399&subview=grid
Appomattox Court House National Historical Park,APCO,NER,VA,37.38274761,-78.80089447,https://www.nps.gov/APCO/index.htm,http://www.inaturalist.org/observations?place_id=95095&subview=grid
Apostle Islands National Lakeshore,APIS,MWR,WI,46.93671618,-90.57955662,https://www.nps.gov/APIS/index.htm,http://www.inaturalist.org/observations?place_id=95096&subview=grid
Appalachian National Scenic Trail,APPA,NER,ME,37.35175454,-80.38107677,https://www.nps.gov/APPA/index.htm,http://www.inaturalist.org/observations?place_id=95097&subview=grid
Arches National Park,ARCH,IMR,UT,38.72253865,-109.5863498,https://www.nps.gov/ARCH/index.htm,http://www.inaturalist.org/observations?place_id=53642&subview=grid
Arlington House National Memorial,ARHO,NCR,VA,38.88255199,-77.07460869,https://www.nps.gov/ARHO/index.htm,http://www.inaturalist.org/observations?place_id=95094&subview=grid
Arkansas Post National Memorial,ARPO,MWR,AR,34.02072546,-91.3473276,https://www.nps.gov/ARPO/index.htm,http://www.inaturalist.org/observations?place_id=95098&subview=grid
Assateague Island National Seashore,ASIS,NER,MD,38.03902729,-75.24962442,https://www.nps.gov/ASIS/index.htm,http://www.inaturalist.org/observations?place_id=62831&subview=grid
Aztec Ruins National Monument,AZRU,IMR,NM,36.83682198,-107.9999245,https://www.nps.gov/AZRU/index.htm,http://www.inaturalist.org/observations?place_id=95099&subview=grid
Badlands National Park,BADL,MWR,SD,43.83400222,-102.3939451,https://www.nps.gov/BADL/index.htm,http://www.inaturalist.org/observations?place_id=72792&subview=grid
Bandelier National Monument,BAND,IMR,NM,35.75757661,-106.3055099,https://www.nps.gov/BAND/index.htm,http://www.inaturalist.org/observations?place_id=63599&subview=grid
Bering Land Bridge National Preserve,BELA,AKR,AK,65.75704848,-163.9208061,https://www.nps.gov/BELA/index.htm,http://www.inaturalist.org/observations?place_id=95100&subview=grid
Bent's Old Fort National Historic Site,BEOL,IMR,CO,38.03977483,-103.42665,https://www.nps.gov/BEOL/index.htm,http://www.inaturalist.org/observations?place_id=95101&subview=grid
Big Bend National Park,BIBE,IMR,TX,29.29777692,-103.2298542,https://www.nps.gov/BIBE/index.htm,http://www.inaturalist.org/observations?place_id=55071&subview=grid
Bighorn Canyon National Recreation Area,BICA,IMR,WY,45.28907419,-108.0264036,https://www.nps.gov/BICA/index.htm,http://www.inaturalist.org/observations?place_id=95102&subview=grid
Big Cypress National Preserve,BICY,SER,FL,25.97043292,-81.08115282,https://www.nps.gov/BICY/index.htm,http://www.inaturalist.org/observations?place_id=95106&subview=grid
Big Hole National Battlefield,BIHO,PWR,MT,45.64691814,-113.6501482,https://www.nps.gov/BIHO/index.htm,http://www.inaturalist.org/observations?place_id=95107&subview=grid
Biscayne National Park,BISC,SER,FL,25.49049476,-80.210247,https://www.nps.gov/BISC/index.htm,http://www.inaturalist.org/observations?place_id=95108&subview=grid
Big South Fork National River and Recreation Area,BISO,SER,TN,36.53466562,-84.6651217,https://www.nps.gov/BISO/index.htm,http://www.inaturalist.org/observations?place_id=95109&subview=grid
Big Thicket National Preserve,BITH,IMR,TX,30.20260051,-94.11767341,https://www.nps.gov/BITH/index.htm,http://www.inaturalist.org/observations?place_id=95110&subview=grid
Black Canyon of the Gunnison National Park,BLCA,IMR,CO,38.57882425,-107.7255568,https://www.nps.gov/BLCA/index.htm,http://www.inaturalist.org/observations?place_id=72635&subview=grid
Blue Ridge Parkway,BLRI,NT,NC,36.43649863,-81.07056466,https://www.nps.gov/BLRI/index.htm,http://www.inaturalist.org/observations?place_id=95113&subview=grid
Bluestone National Scenic River,BLUE,NER,WV,37.58996388,-80.96082027,https://www.nps.gov/BLUE/index.htm,http://www.inaturalist.org/observations?place_id=95114&subview=grid
Boston African American,BOAF,NER,MA,42.35789563,-71.07064043,https://www.nps.gov/BOAF/index.htm,http://www.inaturalist.org/observations?place_id=95115&subview=grid
Boston Harbor Islands National Recreation Area,BOHA,NER,MA,42.26219884,-70.8761789,https://www.nps.gov/BOHA/index.htm,http://www.inaturalist.org/observations?place_id=95116&subview=grid
Boston National Historical Park,BOST,NER,MA,42.37337754,-71.0557492,https://www.nps.gov/BOST/index.htm,http://www.inaturalist.org/observations?place_id=95119&subview=grid
Booker T. Washington National Monument,BOWA,NER,VA,37.11481335,-79.73187418,https://www.nps.gov/BOWA/index.htm,http://www.inaturalist.org/observations?place_id=95120&subview=grid
Bryce Canyon National Park,BRCA,IMR,UT,37.5838981,-112.1827111,https://www.nps.gov/BRCA/index.htm,http://www.inaturalist.org/observations?place_id=69110&subview=grid
Brices Cross Roads National Battlefield Site,BRCR,SER,MS,34.50611958,-88.72889343,https://www.nps.gov/BRCR/index.htm,http://www.inaturalist.org/observations?place_id=95117&subview=grid
Brown v. Board of Education National Historic Site,BRVB,MWR,KS,39.03793261,-95.67640762,https://www.nps.gov/BRVB/index.htm,http://www.inaturalist.org/observations?place_id=95118&subview=grid
Buffalo National River,BUFF,MWR,AR,35.968644,-92.91810617,https://www.nps.gov/BUFF/index.htm,http://www.inaturalist.org/observations?place_id=95122&subview=grid
Buck Island Reef National Monument,BUIS,SER,VI,17.81026454,-64.62221751,https://www.nps.gov/BUIS/index.htm,http://www.inaturalist.org/observations?place_id=95123&subview=grid
Cabrillo National Monument,CABR,PWR,CA,32.67225021,-117.2415986,https://www.nps.gov/CABR/index.htm,http://www.inaturalist.org/observations?place_id=4715&subview=grid
Canyon de Chelly National Monument,CACH,IMR,AZ,36.09426325,-109.3403857,https://www.nps.gov/CACH/index.htm,http://www.inaturalist.org/observations?place_id=95126&subview=grid
Castle Clinton National Monument,CACL,NER,NY,40.70347795,-74.01680558,https://www.nps.gov/CACL/index.htm,http://www.inaturalist.org/observations?place_id=95127&subview=grid
Cape Cod National Seashore,CACO,NER,MA,41.95905397,-70.00526294,https://www.nps.gov/CACO/index.htm,http://www.inaturalist.org/observations?place_id=95121&subview=grid
Casa Grande Ruins National Monument,CAGR,IMR,AZ,32.99702566,-111.5325383,https://www.nps.gov/CAGR/index.htm,http://www.inaturalist.org/observations?place_id=95090&subview=grid
Cape Hatteras National Seashore,CAHA,SER,NC,35.24241198,-75.53119353,https://www.nps.gov/CAHA/index.htm,http://www.inaturalist.org/observations?place_id=95125&subview=grid
Capitol Hill Parks,CAHE,NCR,DC,38.88917488,-76.99683566,https://www.nps.gov/CAHE/index.htm,http://www.inaturalist.org/observations?place_id=97405&subview=grid
Cape Krusenstern National Monument,CAKR,AKR,AK,67.41218477,-163.502572,https://www.nps.gov/CAKR/index.htm,http://www.inaturalist.org/observations?place_id=95083&subview=grid
Cape Lookout National Seashore,CALO,SER,NC,34.95824425,-76.19003926,https://www.nps.gov/CALO/index.htm,http://www.inaturalist.org/observations?place_id=95087&subview=grid
Canaveral National Seashore,CANA,SER,FL,28.78624732,-80.75412332,https://www.nps.gov/CANA/index.htm,http://www.inaturalist.org/observations?place_id=95130&subview=grid
Canyonlands National Park,CANY,IMR,UT,38.24314039,-109.8769622,https://www.nps.gov/CANY/index.htm,http://www.inaturalist.org/observations?place_id=95131&subview=grid
Capitol Reef National Park,CARE,IMR,UT,38.38355284,-111.2830036,https://www.nps.gov/CARE/index.htm,http://www.inaturalist.org/observations?place_id=69282&subview=grid
Cane River Creole National Historical Park,CARI,SER,LA,31.66444165,-93.00729876,https://www.nps.gov/CARI/index.htm,http://www.inaturalist.org/observations?place_id=95105&subview=grid
Carl Sandburg Home National Historic Site,CARL,SER,NC,35.26815486,-82.45106268,https://www.nps.gov/CARL/index.htm,http://www.inaturalist.org/observations?place_id=95111&subview=grid
Castillo de San Marcos National Monument,CASA,SER,FL,29.897857,-81.31217173,https://www.nps.gov/CASA/index.htm,http://www.inaturalist.org/observations?place_id=95135&subview=grid
Catoctin Mountain Park,CATO,NCR,MD,39.64821119,-77.46122133,https://www.nps.gov/CATO/index.htm,http://www.inaturalist.org/observations?place_id=97409&subview=grid
Carlsbad Caverns National Park,CAVE,IMR,NM,32.14092525,-104.5531363,https://www.nps.gov/CAVE/index.htm,http://www.inaturalist.org/observations?place_id=69109&subview=grid
Capulin Volcano National Monument,CAVO,IMR,NM,36.78171068,-103.9710428,https://www.nps.gov/CAVO/index.htm,http://www.inaturalist.org/observations?place_id=90998&subview=grid
Carter G. Woodson National Historic Site,CAWO,NCR,MD,38.91088511,-77.02430875,https://www.nps.gov/CAWO/index.htm,http://www.inaturalist.org/observations?place_id=97410&subview=grid
Cedar Creek & Belle Grove Historical Park,CEBE,NER,VA,38.9923793,-78.31608609,https://www.nps.gov/CEBE/index.htm,http://www.inaturalist.org/observations?place_id=95133&subview=grid
Cedar Breaks National Monument,CEBR,IMR,UT,37.63545088,-112.8452681,https://www.nps.gov/CEBR/index.htm,http://www.inaturalist.org/observations?place_id=53640&subview=grid
Cesar E. Chavez National Monument,CECH,PWR,CA,35.22729381,-118.5615781,https://www.nps.gov/CECH/index.htm,http://www.inaturalist.org/observations?place_id=95129&subview=grid
Chamizal National Memorial,CHAM,IMR,TX,31.76729632,-106.4544011,https://www.nps.gov/CHAM/index.htm,http://www.inaturalist.org/observations?place_id=95136&subview=grid
Chattahoochee River National Recreation Area,CHAT,SER,GA,33.97241053,-84.26676471,https://www.nps.gov/CHAT/index.htm,http://www.inaturalist.org/observations?place_id=95137&subview=grid
Chickamauga and Chattanooga National Military Park,CHCH,SER,GA,34.91896903,-85.25401191,https://www.nps.gov/CHCH/index.htm,http://www.inaturalist.org/observations?place_id=95138&subview=grid
Chaco Culture National Historical Park,CHCU,IMR,NM,36.04492194,-107.9481528,https://www.nps.gov/CHCU/index.htm,http://www.inaturalist.org/observations?place_id=95139&subview=grid
Chickasaw National Recreation Area,CHIC,IMR,OK,34.46049374,-97.00715806,https://www.nps.gov/CHIC/index.htm,http://www.inaturalist.org/observations?place_id=95140&subview=grid
Chiricahua National Monument,CHIR,IMR,AZ,32.01214105,-109.3416065,https://www.nps.gov/CHIR/index.htm,http://www.inaturalist.org/observations?place_id=53613&subview=grid
Channel Islands National Park,CHIS,PWR,CA,34.01655127,-119.7396508,https://www.nps.gov/CHIS/index.htm,http://www.inaturalist.org/observations?place_id=3157&subview=grid
Chesapeake and Ohio Canal National Historical Park,CHOH,NCR,DC,39.5996516,-77.94484191,https://www.nps.gov/CHOH/index.htm,http://www.inaturalist.org/observations?place_id=97463&subview=grid
Charles Pinckney National Historic Site,CHPI,SER,SC,32.84577391,-79.82487582,https://www.nps.gov/CHPI/index.htm,http://www.inaturalist.org/observations?place_id=95144&subview=grid
Christiansted National Historic Site,CHRI,SER,VI,17.73405572,-64.73996534,https://www.nps.gov/CHRI/index.htm,http://www.inaturalist.org/observations?place_id=95145&subview=grid
Little Rock Central High School National Historic Site,CHSC,MWR,AR,34.73695924,-92.29989913,https://www.nps.gov/CHSC/index.htm,http://www.inaturalist.org/observations?place_id=95103&subview=grid
Charles Young Buffalo Soldiers National Monument,CHYO,MWR,OH,39.70744063,-83.89223082,https://www.nps.gov/CHYO/index.htm,http://www.inaturalist.org/observations?place_id=95124&subview=grid
City of Rocks National Reserve,CIRO,PWR,ID,42.06988424,-113.7124104,https://www.nps.gov/CIRO/index.htm,http://www.inaturalist.org/observations?place_id=95104&subview=grid
Clara Barton National Historic Site,CLBA,NCR,MD,38.96762881,-77.14009689,https://www.nps.gov/CLBA/index.htm,http://www.inaturalist.org/observations?place_id=95112&subview=grid
Constitution Gardens,COGA,NCR,DC,38.89093673,-77.04426658,https://www.nps.gov/COGA/index.htm,http://www.inaturalist.org/observations?place_id=97443&subview=grid
Colorado National Monument,COLM,IMR,CO,39.05042535,-108.6920609,https://www.nps.gov/COLM/index.htm,http://www.inaturalist.org/observations?place_id=95132&subview=grid
Colonial National Historical Park,COLO,NER,VA,37.28808948,-76.63422124,https://www.nps.gov/COLO/index.htm,http://www.inaturalist.org/observations?place_id=95134&subview=grid
Congaree National Park,CONG,SER,SC,33.79684439,-80.77279206,https://www.nps.gov/CONG/index.htm,http://www.inaturalist.org/observations?place_id=53620&subview=grid
Coronado National Memorial,CORO,IMR,AZ,31.34900273,-110.2561572,https://www.nps.gov/CORO/index.htm,http://www.inaturalist.org/observations?place_id=63840&subview=grid
Cowpens National Battlefield,COWP,SER,SC,35.13160593,-81.80935401,https://www.nps.gov/COWP/index.htm,http://www.inaturalist.org/observations?place_id=95148&subview=grid
Crater Lake National Park,CRLA,PWR,OR,42.9410862,-122.1328164,https://www.nps.gov/CRLA/index.htm,http://www.inaturalist.org/observations?place_id=52923&subview=grid
Craters of the Moon National Monument,CRMO,PWR,ID,43.28286894,-113.4416201,https://www.nps.gov/CRMO/index.htm,http://www.inaturalist.org/observations?place_id=56772&subview=grid
Cumberland Gap National Historical Park,CUGA,SER,KY,36.63126384,-83.60635656,https://www.nps.gov/CUGA/index.htm,http://www.inaturalist.org/observations?place_id=95149&subview=grid
Cumberland Island National Seashore,CUIS,SER,GA,30.85852664,-81.45253385,https://www.nps.gov/CUIS/index.htm,http://www.inaturalist.org/observations?place_id=95150&subview=grid
Curecanti National Recreation Area,CURE,IMR,CO,38.46284966,-107.1673374,https://www.nps.gov/CURE/index.htm,http://www.inaturalist.org/observations?place_id=95142&subview=grid
Cuyahoga Valley National Park,CUVA,MWR,OH,41.26123633,-81.56904389,https://www.nps.gov/CUVA/index.htm,http://www.inaturalist.org/observations?place_id=72639&subview=grid
Dayton Aviation Heritage National Historical Park,DAAV,MWR,OH,39.80396752,-84.06442181,https://www.nps.gov/DAAV/index.htm,http://www.inaturalist.org/observations?place_id=95151&subview=grid
Denali National Park,DENA,AKR,AK,63.34110762,-150.7341423,https://www.nps.gov/DENA/index.htm,http://www.inaturalist.org/observations?place_id=71077&subview=grid
Devils Postpile National Monument,DEPO,PWR,CA,37.61537361,-119.0876861,https://www.nps.gov/DEPO/index.htm,http://www.inaturalist.org/observations?place_id=5232&subview=grid
De Soto National Memorial,DESO,SER,FL,27.52272611,-82.64335416,https://www.nps.gov/DESO/index.htm,http://www.inaturalist.org/observations?place_id=95156&subview=grid
Devils Tower National Monument,DETO,IMR,WY,44.59064562,-104.7156342,https://www.nps.gov/DETO/index.htm,http://www.inaturalist.org/observations?place_id=95159&subview=grid
Death Valley National Park,DEVA,PWR,CA,36.48393063,-117.1326278,https://www.nps.gov/DEVA/index.htm,http://www.inaturalist.org/observations?place_id=4504&subview=grid
Delaware Water Gap National Recreation Area,DEWA,NER,PA,41.10031635,-74.95693004,https://www.nps.gov/DEWA/index.htm,http://www.inaturalist.org/observations?place_id=72641&subview=grid
Dinosaur National Monument,DINO,IMR,CO,40.50596642,-108.9377028,https://www.nps.gov/DINO/index.htm,http://www.inaturalist.org/observations?place_id=95164&subview=grid
Dry Tortugas National Park,DRTO,SER,FL,24.64883027,-82.87179065,https://www.nps.gov/DRTO/index.htm,http://www.inaturalist.org/observations?place_id=70571&subview=grid
Ebey's Landing National Historical Reserve,EBLA,PWR,WA,48.214014,-122.6877159,https://www.nps.gov/EBLA/index.htm,http://www.inaturalist.org/observations?place_id=95166&subview=grid
Edgar Allan Poe National Historic Site,EDAL,NER,PA,39.96195482,-75.1500062,https://www.nps.gov/EDAL/index.htm,http://www.inaturalist.org/observations?place_id=95167&subview=grid
Edison National Historic Site,EDIS,NER,NJ,40.78597075,-74.23982097,https://www.nps.gov/EDIS/index.htm,http://www.inaturalist.org/observations?place_id=95141&subview=grid
Effigy Mounds National Monument,EFMO,MWR,IA,43.09145766,-91.20777104,https://www.nps.gov/EFMO/index.htm,http://www.inaturalist.org/observations?place_id=95168&subview=grid
Eisenhower National Historic Site,EISE,NER,PA,39.79577487,-77.26508102,https://www.nps.gov/EISE/index.htm,http://www.inaturalist.org/observations?place_id=95169&subview=grid
El Malpais National Monument,ELMA,IMR,NM,34.78484509,-107.977531,https://www.nps.gov/ELMA/index.htm,http://www.inaturalist.org/observations?place_id=95173&subview=grid
El Morro National Monument,ELMO,IMR,NM,35.03895884,-108.3463984,https://www.nps.gov/ELMO/index.htm,http://www.inaturalist.org/observations?place_id=95174&subview=grid
Eleanor Roosevelt National Historic Site,ELRO,NER,NY,41.76086389,-73.89687748,https://www.nps.gov/ELRO/index.htm,http://www.inaturalist.org/observations?place_id=95175&subview=grid
Eugene O'Neill National Historic Site,EUON,PWR,CA,37.82604456,-122.0271566,https://www.nps.gov/EUON/index.htm,http://www.inaturalist.org/observations?place_id=95176&subview=grid
Everglades National Park,EVER,SER,FL,25.37216762,-80.88182401,https://www.nps.gov/EVER/index.htm,http://www.inaturalist.org/observations?place_id=53957&subview=grid
Federal Hall National Memorial,FEHA,NER,NY,40.70731192,-74.01025636,https://www.nps.gov/FEHA/index.htm,http://www.inaturalist.org/observations?place_id=95165&subview=grid
Fire Island National Seashore,FIIS,NER,NY,40.69182965,-72.99435226,https://www.nps.gov/FIIS/index.htm,http://www.inaturalist.org/observations?place_id=95160&subview=grid
First Ladies National Historic Site,FILA,MWR,OH,40.79662217,-81.37593264,https://www.nps.gov/FILA/index.htm,http://www.inaturalist.org/observations?place_id=95161&subview=grid
Florissant Fossil Beds National Monument,FLFO,IMR,CO,38.91260206,-105.2803394,https://www.nps.gov/FLFO/index.htm,http://www.inaturalist.org/observations?place_id=95152&subview=grid
Flight 93 National Memorial,FLNI,NER,PA,40.06061151,-78.89457021,https://www.nps.gov/FLNI/index.htm,http://www.inaturalist.org/observations?place_id=95177&subview=grid
Fort Bowie National Historic Site,FOBO,IMR,AZ,32.14925916,-109.4511317,https://www.nps.gov/FOBO/index.htm,http://www.inaturalist.org/observations?place_id=63837&subview=grid
Fossil Butte National Monument,FOBU,IMR,WY,41.85634277,-110.7624714,https://www.nps.gov/FOBU/index.htm,http://www.inaturalist.org/observations?place_id=95183&subview=grid
Fort Caroline National Memorial,FOCA,SER,FL,30.38452103,-81.50029453,https://www.nps.gov/FOCA/index.htm,http://www.inaturalist.org/observations?place_id=95163&subview=grid
Fort Davis National Historic Site,FODA,IMR,TX,30.59930362,-103.8961905,https://www.nps.gov/FODA/index.htm,http://www.inaturalist.org/observations?place_id=95178&subview=grid
Fort Donelson National Battlefield,FODO,SER,TN,36.48728222,-87.86088301,https://www.nps.gov/FODO/index.htm,http://www.inaturalist.org/observations?place_id=95182&subview=grid
Fort Frederica National Monument,FOFR,SER,GA,31.22355511,-81.38984256,https://www.nps.gov/FOFR/index.htm,http://www.inaturalist.org/observations?place_id=95184&subview=grid
Fort Laramie National Historic Site,FOLA,IMR,WY,42.20302502,-104.5459193,https://www.nps.gov/FOLA/index.htm,http://www.inaturalist.org/observations?place_id=95185&subview=grid
Fort Larned National Historic Site,FOLS,MWR,KS,38.18449077,-99.21697509,https://www.nps.gov/FOLS/index.htm,http://www.inaturalist.org/observations?place_id=95186&subview=grid
Fort Matanzas National Monument,FOMA,SER,FL,29.71140527,-81.23866231,https://www.nps.gov/FOMA/index.htm,http://www.inaturalist.org/observations?place_id=95187&subview=grid
Fort McHenry National Monument and Historic Shrine,FOMC,NER,MD,39.26395311,-76.58044164,https://www.nps.gov/FOMC/index.htm,http://www.inaturalist.org/observations?place_id=65738&subview=grid
Fort Necessity National Battlefield,FONE,NER,PA,39.81003749,-79.5886907,https://www.nps.gov/FONE/index.htm,http://www.inaturalist.org/observations?place_id=95189&subview=grid
Fort Point National Historic Site,FOPO,PWR,CA,37.80840018,-122.4737172,https://www.nps.gov/FOPO/index.htm,http://www.inaturalist.org/observations?place_id=95170&subview=grid
Fort Pulaski National Monument,FOPU,SER,GA,32.03477743,-80.94362859,https://www.nps.gov/FOPU/index.htm,http://www.inaturalist.org/observations?place_id=95171&subview=grid
Fort Raleigh National Historic Site,FORA,SER,NC,35.93636827,-75.70938761,https://www.nps.gov/FORA/index.htm,http://www.inaturalist.org/observations?place_id=95172&subview=grid
Fort Scott National Historic Site,FOSC,MWR,KS,37.84358848,-94.70429174,https://www.nps.gov/FOSC/index.htm,http://www.inaturalist.org/observations?place_id=95188&subview=grid
Fort Smith National Historic Site,FOSM,MWR,AR,35.38837825,-94.43130219,https://www.nps.gov/FOSM/index.htm,http://www.inaturalist.org/observations?place_id=95157&subview=grid
Fort Stanwix National Monument,FOST,NER,NY,43.2105344,-75.45557626,https://www.nps.gov/FOST/index.htm,http://www.inaturalist.org/observations?place_id=95190&subview=grid
Fort Sumter National Monument,FOSU,SER,SC,32.75359427,-79.87933364,https://www.nps.gov/FOSU/index.htm,http://www.inaturalist.org/observations?place_id=95191&subview=grid
Ford's Theatre National Historic Site,FOTH,NCR,DC,38.89666226,-77.02565974,https://www.nps.gov/FOTH/index.htm,http://www.inaturalist.org/observations?place_id=97417&subview=grid
Fort Union National Monument,FOUN,IMR,NM,35.90737075,-105.0120174,https://www.nps.gov/FOUN/index.htm,http://www.inaturalist.org/observations?place_id=95192&subview=grid
Fort Union Trading Post National Historic Site,FOUS,MWR,ND,47.99898646,-104.0380786,https://www.nps.gov/FOUS/index.htm,http://www.inaturalist.org/observations?place_id=95195&subview=grid
Fort Vancouver National Historic Site,FOVA,PWR,WA,45.62356027,-122.6616376,https://www.nps.gov/FOVA/index.htm,http://www.inaturalist.org/observations?place_id=95193&subview=grid
Fort Washington Park,FOWA,NCR,MD,38.71217666,-77.02875093,https://www.nps.gov/FOWA/index.htm,http://www.inaturalist.org/observations?place_id=97420&subview=grid
Franklin Delano Roosevelt Memorial,FRDE,NCR,DC,38.88341273,-77.04311542,https://www.nps.gov/FRDE/index.htm,http://www.inaturalist.org/observations?place_id=97421&subview=grid
Frederick Douglass National Historic Site,FRDO,NCR,DC,38.86297683,-76.98507919,https://www.nps.gov/FRDO/index.htm,http://www.inaturalist.org/observations?place_id=97415&subview=grid
Fredericksburg,FRED,NER,VA,38.292854,-77.46918659,https://www.nps.gov/FRED/index.htm,http://www.inaturalist.org/observations?place_id=95180&subview=grid
Friendship Hill National Historic Site,FRHI,NER,PA,39.77545488,-79.92528004,https://www.nps.gov/FRHI/index.htm,http://www.inaturalist.org/observations?place_id=95194&subview=grid
Frederick Law Olmsted National Historic Site,FRLA,NER,MA,42.32550867,-71.13112957,https://www.nps.gov/FRLA/index.htm,http://www.inaturalist.org/observations?place_id=95179&subview=grid
First State National Historical Park,FRST,NER,DE,39.83184434,-75.56362482,https://www.nps.gov/FRST/index.htm,http://www.inaturalist.org/observations?place_id=95201&subview=grid
Gates of the Arctic National Park and Preserve,GAAR,AKR,AK,67.86900574,-153.3869032,https://www.nps.gov/GAAR/index.htm,http://www.inaturalist.org/observations?place_id=69111&subview=grid
Gauley River National Recreation Area,GARI,NER,WV,38.206142,-81.004202,https://www.nps.gov/GARI/index.htm,http://www.inaturalist.org/observations?place_id=95202&subview=grid
Gateway National Recreation Area,GATE,NER,NY,40.6185497,-73.86104474,https://www.nps.gov/GATE/index.htm,http://www.inaturalist.org/observations?place_id=69314&subview=grid
General Grant National Memorial,GEGR,NER,NY,40.81343436,-73.96307567,https://www.nps.gov/GEGR/index.htm,http://www.inaturalist.org/observations?place_id=95203&subview=grid
George Rogers Clark National Historical Park,GERO,MWR,IN,38.67840212,-87.53700769,https://www.nps.gov/GERO/index.htm,http://www.inaturalist.org/observations?place_id=95204&subview=grid
Gettysburg National Military Park,GETT,NER,PA,39.80428488,-77.23846983,https://www.nps.gov/GETT/index.htm,http://www.inaturalist.org/observations?place_id=95208&subview=grid
George Washington Birthplace National Monument,GEWA,NER,VA,38.19300471,-76.92331568,https://www.nps.gov/GEWA/index.htm,http://www.inaturalist.org/observations?place_id=72881&subview=grid
Gila Cliff Dwellings National Monument,GICL,IMR,NM,33.22760971,-108.2732958,https://www.nps.gov/GICL/index.htm,http://www.inaturalist.org/observations?place_id=95198&subview=grid
Glacier National Park,GLAC,IMR,MT,48.74679601,-113.8587463,https://www.nps.gov/GLAC/index.htm,http://www.inaturalist.org/observations?place_id=72841&subview=grid
Glacier Bay National Park,GLBA,AKR,AK,58.79143942,-136.8109294,https://www.nps.gov/GLBA/index.htm,http://www.inaturalist.org/observations?place_id=69113&subview=grid
Glen Canyon National Recreation Area,GLCA,IMR,UT,37.39766815,-110.8021276,https://www.nps.gov/GLCA/index.htm,http://www.inaturalist.org/observations?place_id=95199&subview=grid
Golden Gate National Recreation Area,GOGA,PWR,CA,37.85887677,-122.551128,https://www.nps.gov/GOGA/index.htm,http://www.inaturalist.org/observations?place_id=9912&subview=grid
Governors Island National Monument,GOIS,NER,NY,40.69161563,-74.01682767,https://www.nps.gov/GOIS/index.htm,http://www.inaturalist.org/observations?place_id=95200&subview=grid
Golden Spike National Historic Site,GOSP,IMR,UT,41.63099575,-112.4939862,https://www.nps.gov/GOSP/index.htm,http://www.inaturalist.org/observations?place_id=95212&subview=grid
Great Basin National Park,GRBA,PWR,NV,38.9460953,-114.2579658,https://www.nps.gov/GRBA/index.htm,http://www.inaturalist.org/observations?place_id=69699&subview=grid
Grand Canyon National Park,GRCA,IMR,AZ,36.18654515,-112.185254,https://www.nps.gov/GRCA/index.htm,http://www.inaturalist.org/observations?place_id=69216&subview=grid
Greenbelt Park,GREE,NCR,MD,38.98403277,-76.90069152,https://www.nps.gov/GREE/index.htm,http://www.inaturalist.org/observations?place_id=97423&subview=grid
Grant-Kohrs Ranch National Historic Site,GRKO,IMR,MT,46.41358655,-112.7467034,https://www.nps.gov/GRKO/index.htm,http://www.inaturalist.org/observations?place_id=95213&subview=grid
Grand Portage National Monument,GRPO,MWR,MI,47.999682,-89.7606885,https://www.nps.gov/GRPO/index.htm,http://www.inaturalist.org/observations?place_id=95216&subview=grid
Great Sand Dunes National Park,GRSA,IMR,CO,37.77654364,-105.6288604,https://www.nps.gov/GRSA/index.htm,http://www.inaturalist.org/observations?place_id=53632&subview=grid
Great Smoky Mountains National Park,GRSM,SER,NC,35.60927471,-83.52627532,https://www.nps.gov/GRSM/index.htm,http://www.inaturalist.org/observations?place_id=72645&subview=grid
Grand Teton National Park,GRTE,IMR,WY,43.81816011,-110.7054877,https://www.nps.gov/GRTE/index.htm,http://www.inaturalist.org/observations?place_id=69099&subview=grid
Guilford Courthouse National Military Park,GUCO,SER,NC,36.1330178,-79.84186813,https://www.nps.gov/GUCO/index.htm,http://www.inaturalist.org/observations?place_id=95214&subview=grid
Gulf Islands National Seashore,GUIS,SER,FL,30.37306335,-86.90996505,https://www.nps.gov/GUIS/index.htm,http://www.inaturalist.org/observations?place_id=95223&subview=grid
Guadalupe Mountains National Park,GUMO,IMR,TX,31.92334952,-104.8843561,https://www.nps.gov/GUMO/index.htm,http://www.inaturalist.org/observations?place_id=69313&subview=grid
George Washington Carver National Monument,GWCA,MWR,MO,36.98713203,-94.35522735,https://www.nps.gov/GWCA/index.htm,http://www.inaturalist.org/observations?place_id=95224&subview=grid
George Washington Memorial Parkway,GWMP,NCR,VA,38.71498629,-77.04954861,https://www.nps.gov/GWMP/index.htm,http://www.inaturalist.org/observations?place_id=97425&subview=grid
Harpers Ferry National Historical Park,HAFE,NCR,WV,39.31286155,-77.74195536,https://www.nps.gov/HAFE/index.htm,http://www.inaturalist.org/observations?place_id=97426&subview=grid
Hagerman Fossil Beds National Monument,HAFO,PWR,ID,42.77557327,-114.9539989,https://www.nps.gov/HAFO/index.htm,http://www.inaturalist.org/observations?place_id=95219&subview=grid
Hamilton Grange National Memorial,HAGR,NER,NY,40.82128019,-73.94727123,https://www.nps.gov/HAGR/index.htm,http://www.inaturalist.org/observations?place_id=95220&subview=grid
Haleakala National Park,HALE,PWR,HI,20.70728294,-156.1485713,https://www.nps.gov/HALE/index.htm,http://www.inaturalist.org/observations?place_id=56788&subview=grid
Hampton National Historic Site,HAMP,NER,MD,39.41660872,-76.58821007,https://www.nps.gov/HAMP/index.htm,http://www.inaturalist.org/observations?place_id=95225&subview=grid
Hawai'i Volcanoes National Park,HAVO,PWR,HI,19.37757748,-155.6028551,https://www.nps.gov/HAVO/index.htm,http://www.inaturalist.org/observations?place_id=7222&subview=grid
Herbert Hoover National Historic Site,HEHO,MWR,IA,41.66729293,-91.35149954,https://www.nps.gov/HEHO/index.htm,http://www.inaturalist.org/observations?place_id=95226&subview=grid
Horseshoe Bend National Military Park,HOBE,SER,AL,32.97668769,-85.73413618,https://www.nps.gov/HOBE/index.htm,http://www.inaturalist.org/observations?place_id=95227&subview=grid
Hopewell Culture National Historical Park,HOCU,MWR,OH,39.2793938,-83.13519508,https://www.nps.gov/HOCU/index.htm,http://www.inaturalist.org/observations?place_id=95221&subview=grid
Home of Franklin D Roosevelt National Historic Site,HOFR,NER,NY,41.76804119,-73.92671769,https://www.nps.gov/HOFR/index.htm,http://www.inaturalist.org/observations?place_id=95230&subview=grid
Hopewell Furnace National Historic Site,HOFU,NER,PA,40.2060723,-75.76811627,https://www.nps.gov/HOFU/index.htm,http://www.inaturalist.org/observations?place_id=95231&subview=grid
Homestead National Monument,HOME,MWR,NE,40.28799999,-96.83392498,https://www.nps.gov/HOME/index.htm,http://www.inaturalist.org/observations?place_id=95205&subview=grid
Honouliuli National Monument,HONO,PWR,HI,21.3881751,-158.057499,https://www.nps.gov/HONO/index.htm,http://www.inaturalist.org/observations?place_id=95233&subview=grid
Hot Springs National Park,HOSP,MWR,AR,34.51113731,-93.08972185,https://www.nps.gov/HOSP/index.htm,http://www.inaturalist.org/observations?place_id=56706&subview=grid
Hovenweep National Monument,HOVE,IMR,UT,37.383539,-109.0684513,https://www.nps.gov/HOVE/index.htm,http://www.inaturalist.org/observations?place_id=95235&subview=grid
Harry S Truman National Historic Site,HSTR,MWR,MO,38.90127496,-94.53066282,https://www.nps.gov/HSTR/index.htm,http://www.inaturalist.org/observations?place_id=95236&subview=grid
Hubbell Trading Post National Historic Site,HUTR,IMR,AZ,35.70727316,-109.5599516,https://www.nps.gov/HUTR/index.htm,http://www.inaturalist.org/observations?place_id=95237&subview=grid
Ice Age National Scenic Trail,IATR,MWR,WI,43.07758823,-89.6168989,https://www.nps.gov/IATR/index.htm,http://www.inaturalist.org/observations?place_id=97429&subview=grid
Illinois and Michigan Canal National Heritage Corridor,ILMI,MWR,IL,41.33074149,-88.48014499,https://www.nps.gov/ILMI/index.htm,http://www.inaturalist.org/observations?place_id=97430&subview=grid
Independence National Historical Park,INDE,NER,PA,39.9453737,-75.14692521,https://www.nps.gov/INDE/index.htm,http://www.inaturalist.org/observations?place_id=95238&subview=grid
Indiana Dunes National Lakeshore,INDU,MWR,IN,41.66141521,-87.03253334,https://www.nps.gov/INDU/index.htm,http://www.inaturalist.org/observations?place_id=95241&subview=grid
Isle Royale National Park,ISRO,MWR,MI,48.01095485,-88.82842252,https://www.nps.gov/ISRO/index.htm,http://www.inaturalist.org/observations?place_id=95245&subview=grid
James A. Garfield National Historic Site,JAGA,MWR,OH,41.66486548,-81.35086557,https://www.nps.gov/JAGA/index.htm,http://www.inaturalist.org/observations?place_id=95242&subview=grid
Jewel Cave National Monument,JECA,MWR,SD,43.7310286,-103.829994,https://www.nps.gov/JECA/index.htm,http://www.inaturalist.org/observations?place_id=95228&subview=grid
Jefferson National Expansion Memorial,JEFF,MWR,MO,38.6221161,-90.17562932,https://www.nps.gov/JEFF/index.htm,http://www.inaturalist.org/observations?place_id=95246&subview=grid
Thomas Jefferson Memorial,JEFM,NCR,DC,38.8810143,-77.03632573,https://www.nps.gov/JEFM/index.htm,http://www.inaturalist.org/observations?place_id=97432&subview=grid
Jean Lafitte National Historical Park and Preserve,JELA,SER,LA,29.81916125,-90.14721028,https://www.nps.gov/JELA/index.htm,http://www.inaturalist.org/observations?place_id=54005&subview=grid
Jimmy Carter National Historic Site,JICA,SER,GA,32.02631793,-84.43240803,https://www.nps.gov/JICA/index.htm,http://www.inaturalist.org/observations?place_id=95215&subview=grid
John Day Fossil Beds National Monument,JODA,PWR,OR,44.543136,-119.6343185,https://www.nps.gov/JODA/index.htm,http://www.inaturalist.org/observations?place_id=95248&subview=grid
"John D. Rockefeller, Jr. Memorial Parkway",JODR,IMR,WY,44.08869783,-110.7280424,https://www.nps.gov/JODR/index.htm,http://www.inaturalist.org/observations?place_id=95252&subview=grid
John Fitzgerald Kennedy National Historic Site,JOFI,NER,MA,42.34693694,-71.12323846,https://www.nps.gov/JOFI/index.htm,http://www.inaturalist.org/observations?place_id=95253&subview=grid
John F. Kennedy Center for Performing Arts,JOFK,NCR,DC,38.89594255,-77.05558703,https://www.nps.gov/JOFK/index.htm,http://www.inaturalist.org/observations?place_id=97434&subview=grid
Johnstown Flood National Memorial,JOFL,NER,PA,40.3449218,-78.77673481,https://www.nps.gov/JOFL/index.htm,http://www.inaturalist.org/observations?place_id=95254&subview=grid
John Muir National Historic Site,JOMU,PWR,CA,37.98263441,-122.13266,https://www.nps.gov/JOMU/index.htm,http://www.inaturalist.org/observations?place_id=5330&subview=grid
Joshua Tree National Park,JOTR,PWR,CA,33.82705237,-115.8601108,https://www.nps.gov/JOTR/index.htm,http://www.inaturalist.org/observations?place_id=3680&subview=grid
Kaloko-Honokohau National Historical Park,KAHO,PWR,HI,19.68082506,-156.0307196,https://www.nps.gov/KAHO/index.htm,http://www.inaturalist.org/observations?place_id=95255&subview=grid
Kalaupapa National Historical Park,KALA,PWR,HI,21.15464089,-156.9246498,https://www.nps.gov/KALA/index.htm,http://www.inaturalist.org/observations?place_id=95256&subview=grid
Katmai National Park,KATM,AKR,AK,58.56275321,-154.9796338,https://www.nps.gov/KATM/index.htm,http://www.inaturalist.org/observations?place_id=95257&subview=grid
Kenai Fjords National Park,KEFJ,AKR,AK,59.95320812,-149.8815245,https://www.nps.gov/KEFJ/index.htm,http://www.inaturalist.org/observations?place_id=95258&subview=grid
Kennesaw Mountain National Battlefield Park,KEMO,SER,GA,33.97805859,-84.57891656,https://www.nps.gov/KEMO/index.htm,http://www.inaturalist.org/observations?place_id=95249&subview=grid
Keweenaw National Historical Park,KEWE,MWR,MI,47.13815614,-88.56870596,https://www.nps.gov/KEWE/index.htm,http://www.inaturalist.org/observations?place_id=95229&subview=grid
Kings Canyon National Park,KICA,PWR,CA,36.89861451,-118.5872447,https://www.nps.gov/KICA/index.htm,http://www.inaturalist.org/observations?place_id=3378&subview=grid
Kings Mountain National Military Park,KIMO,SER,SC,35.13900554,-81.38978804,https://www.nps.gov/KIMO/index.htm,http://www.inaturalist.org/observations?place_id=95260&subview=grid
Klondike Gold Rush National Historical Park,KLGO,AKR,AK,59.63158703,-135.2926367,https://www.nps.gov/KLGO/index.htm,http://www.inaturalist.org/observations?place_id=95264&subview=grid
Knife River Indian Villages National Historic Site,KNRI,MWR,ND,47.36850054,-101.3920156,https://www.nps.gov/KNRI/index.htm,http://www.inaturalist.org/observations?place_id=95265&subview=grid
Kobuk Valley National Park,KOVA,AKR,AK,67.35336474,-159.1988853,https://www.nps.gov/KOVA/index.htm,http://www.inaturalist.org/observations?place_id=69115&subview=grid
Korean War Veterans Memorial,KOWA,NCR,DC,38.88792133,-77.04807734,https://www.nps.gov/KOWA/index.htm,http://www.inaturalist.org/observations?place_id=97436&subview=grid
Lava Beds National Monument,LABE,PWR,CA,41.75872643,-121.5178032,https://www.nps.gov/LABE/index.htm,http://www.inaturalist.org/observations?place_id=4512&subview=grid
Lake Chelan National Recreation Area,LACH,PWR,WA,48.38241796,-120.6999037,https://www.nps.gov/LACH/index.htm,http://www.inaturalist.org/observations?place_id=95266&subview=grid
Lake Clark National Park,LACL,AKR,AK,60.5472857,-153.2488147,https://www.nps.gov/LACL/index.htm,http://www.inaturalist.org/observations?place_id=69114&subview=grid
Lake Mead National Recreation Area,LAKE,PWR,NV,35.71471937,-114.6519029,https://www.nps.gov/LAKE/index.htm,http://www.inaturalist.org/observations?place_id=95269&subview=grid
Lake Meredith National Recreation Area,LAMR,IMR,TX,35.59585691,-101.6970984,https://www.nps.gov/LAMR/index.htm,http://www.inaturalist.org/observations?place_id=95271&subview=grid
Lake Roosevelt National Recreation Area,LARO,PWR,WA,47.9116375,-118.7151536,https://www.nps.gov/LARO/index.htm,http://www.inaturalist.org/observations?place_id=95272&subview=grid
Lassen Volcanic National Park,LAVO,PWR,CA,40.49378739,-121.4072048,https://www.nps.gov/LAVO/index.htm,http://www.inaturalist.org/observations?place_id=4509&subview=grid
Lewis and Clark National Historic Trail,LECL,MWR,NE,40.66418466,-95.83244759,https://www.nps.gov/LECL/index.htm,http://www.inaturalist.org/observations?place_id=95273&subview=grid
Lewis and Clark National Historical Park,LEWI,PWR,WA,46.28618254,-124.0676324,https://www.nps.gov/LEWI/index.htm,http://www.inaturalist.org/observations?place_id=95274&subview=grid
Little Bighorn Battlefield National Monument,LIBI,IMR,MT,45.56505379,-107.4286363,https://www.nps.gov/LIBI/index.htm,http://www.inaturalist.org/observations?place_id=95261&subview=grid
Lincoln Boyhood National Memorial,LIBO,MWR,IN,38.11816976,-86.99656863,https://www.nps.gov/LIBO/index.htm,http://www.inaturalist.org/observations?place_id=95222&subview=grid
Lincoln Home National Historic Site,LIHO,MWR,IL,39.79715641,-89.64513397,https://www.nps.gov/LIHO/index.htm,http://www.inaturalist.org/observations?place_id=95232&subview=grid
Lincoln Memorial,LINC,NCR,DC,38.88927229,-77.05017778,https://www.nps.gov/LINC/index.htm,http://www.inaturalist.org/observations?place_id=97437&subview=grid
Little River Canyon National Preserve,LIRI,SER,AL,34.4519056,-85.59724642,https://www.nps.gov/LIRI/index.htm,http://www.inaturalist.org/observations?place_id=95234&subview=grid
Longfellow National Historic Site,LONG,NER,MA,42.37698853,-71.12636956,https://www.nps.gov/LONG/index.htm,http://www.inaturalist.org/observations?place_id=95239&subview=grid
Lower Saint Croix National Scenic Riverway,LOSA,MWR,WI,45.34489814,-92.70445977,https://www.nps.gov/LOSA/index.htm,http://www.inaturalist.org/observations?place_id=97439&subview=grid
Lowell National Historical Park,LOWE,NER,MA,42.64646574,-71.33094285,https://www.nps.gov/LOWE/index.htm,http://www.inaturalist.org/observations?place_id=95244&subview=grid
Lyndon Baines Johnson Grove National Memorial,LYBA,NCR,DC,38.87858032,-77.0514583,https://www.nps.gov/LYBA/index.htm,http://www.inaturalist.org/observations?place_id=97438&subview=grid
Lyndon B. Johnson National Historical Park,LYJO,IMR,TX,30.25032439,-98.62166112,https://www.nps.gov/LYJO/index.htm,http://www.inaturalist.org/observations?place_id=95275&subview=grid
Mary McLeod Bethune Council House National Historic Site,MABE,NCR,DC,38.90818332,-77.03096513,https://www.nps.gov/MABE/index.htm,http://www.inaturalist.org/observations?place_id=97440&subview=grid
Marsh-Billings-Rockefeller National Historical Park,MABI,NER,VT,43.63382235,-72.53823839,https://www.nps.gov/MABI/index.htm,http://www.inaturalist.org/observations?place_id=55121&subview=grid
Mammoth Cave National Park,MACA,SER,KY,37.19758047,-86.13089476,https://www.nps.gov/MACA/index.htm,http://www.inaturalist.org/observations?place_id=72649&subview=grid
Martin Luther King Jr. National Historic Site,MALU,SER,GA,33.75492007,-84.3716933,https://www.nps.gov/MALU/index.htm,http://www.inaturalist.org/observations?place_id=95277&subview=grid
Manassas National Battlefield Park,MANA,NCR,VA,38.82077103,-77.53003926,https://www.nps.gov/MANA/index.htm,http://www.inaturalist.org/observations?place_id=97441&subview=grid
Manzanar National Historic Site,MANZ,PWR,CA,36.72559147,-118.1547178,https://www.nps.gov/MANZ/index.htm,http://www.inaturalist.org/observations?place_id=4513&subview=grid
Martin Van Buren National Historic Site,MAVA,NER,NY,42.36666376,-73.71529506,https://www.nps.gov/MAVA/index.htm,http://www.inaturalist.org/observations?place_id=95270&subview=grid
Maggie L. Walker National Historic Site,MAWA,NER,VA,37.54732825,-77.43674808,https://www.nps.gov/MAWA/index.htm,http://www.inaturalist.org/observations?place_id=95278&subview=grid
Mesa Verde National Park,MEVE,IMR,CO,37.22348339,-108.5009289,https://www.nps.gov/MEVE/index.htm,http://www.inaturalist.org/observations?place_id=69108&subview=grid
Minidoka National Historic Site,MIIN,PWR,WA,42.68068468,-114.2449294,https://www.nps.gov/MIIN/index.htm,http://www.inaturalist.org/observations?place_id=95283&subview=grid
Minute Man National Historical Park,MIMA,NER,MA,42.45340032,-71.29604682,https://www.nps.gov/MIMA/index.htm,http://www.inaturalist.org/observations?place_id=95279&subview=grid
Minuteman Missile National Historic Site,MIMI,MWR,SD,43.84457664,-101.9004328,https://www.nps.gov/MIMI/index.htm,http://www.inaturalist.org/observations?place_id=95143&subview=grid
Mississippi National River and Recreation Area,MISS,MWR,MN,44.77223486,-92.93011156,https://www.nps.gov/MISS/index.htm,http://www.inaturalist.org/observations?place_id=95153&subview=grid
Martin Luther King Jr Memorial,MLKM,NCR,DC,38.88628209,-77.04439707,https://www.nps.gov/MLKM/index.htm,http://www.inaturalist.org/observations?place_id=97445&subview=grid
Missouri National Recreation River,MNRR,MWR,SD,42.76717171,-97.07068502,https://www.nps.gov/MNRR/index.htm,http://www.inaturalist.org/observations?place_id=95154&subview=grid
Montezuma Castle National Monument,MOCA,IMR,AZ,34.61102059,-111.8366153,https://www.nps.gov/MOCA/index.htm,http://www.inaturalist.org/observations?place_id=95155&subview=grid
Moores Creek National Battlefield,MOCR,SER,NC,34.45820773,-78.11031132,https://www.nps.gov/MOCR/index.htm,http://www.inaturalist.org/observations?place_id=95158&subview=grid
Mojave National Preserve,MOJA,PWR,CA,35.11418232,-115.5143543,https://www.nps.gov/MOJA/index.htm,http://www.inaturalist.org/observations?place_id=3958&subview=grid
Monocacy National Battlefield,MONO,NCR,MD,39.35769765,-77.40246951,https://www.nps.gov/MONO/index.htm,http://www.inaturalist.org/observations?place_id=97466&subview=grid
Mount Rainier National Park,MORA,PWR,WA,46.86060444,-121.7043729,https://www.nps.gov/MORA/index.htm,http://www.inaturalist.org/observations?place_id=8838&subview=grid
Morristown National Historical Park,MORR,NER,NJ,40.76780365,-74.53749376,https://www.nps.gov/MORR/index.htm,http://www.inaturalist.org/observations?place_id=95280&subview=grid
Mount Rushmore National Memorial,MORU,MWR,SD,43.88036924,-103.4525188,https://www.nps.gov/MORU/index.htm,http://www.inaturalist.org/observations?place_id=95281&subview=grid
Muir Woods National Monument,MUWO,PWR,CA,37.89846858,-122.583964,https://www.nps.gov/MUWO/index.htm,http://www.inaturalist.org/observations?place_id=5603&subview=grid
Natural Bridges National Monument,NABR,IMR,UT,37.60452811,-110.0022454,https://www.nps.gov/NABR/index.htm,http://www.inaturalist.org/observations?place_id=95285&subview=grid
National Capital Parks,NACA,NCR,DC,39.06319291,-76.83522058,https://www.nps.gov/NACA/index.htm,http://www.inaturalist.org/observations?place_id=97469&subview=grid
National Capital Parks - East,NACE,NCR,DC,38.87756927,-76.94934656,https://www.nps.gov/NACE/index.htm,http://www.inaturalist.org/observations?place_id=97444&subview=grid
National Mall,NAMA,NCR,DC,38.88986603,-77.02278438,https://www.nps.gov/NAMA/index.htm,http://www.inaturalist.org/observations?place_id=97400&subview=grid
Natchez National Historical Park,NATC,SER,MS,31.54301947,-91.38244977,https://www.nps.gov/NATC/index.htm,http://www.inaturalist.org/observations?place_id=95206&subview=grid
Natchez Trace Parkway and National Scenic Trail,NATR,SER,AL,32.87003986,-89.65421359,https://www.nps.gov/NATR/index.htm,
Navajo National Monument,NAVA,IMR,AZ,36.68549118,-110.5362565,https://www.nps.gov/NAVA/index.htm,http://www.inaturalist.org/observations?place_id=95286&subview=grid
New Bedford Whaling National Historical Park,NEBE,NER,MA,41.63564794,-70.92319615,https://www.nps.gov/NEBE/index.htm,http://www.inaturalist.org/observations?place_id=95196&subview=grid
Nez Perce National Historical Park,NEPE,PWR,WA,45.79427929,-116.2780221,https://www.nps.gov/NEPE/index.htm,http://www.inaturalist.org/observations?place_id=95197&subview=grid
New River Gorge National River,NERI,NER,VA,37.84026469,-80.98970436,https://www.nps.gov/NERI/index.htm,http://www.inaturalist.org/observations?place_id=95209&subview=grid
Nicodemus National Historic Site,NICO,MWR,KS,39.39038861,-99.61787258,https://www.nps.gov/NICO/index.htm,http://www.inaturalist.org/observations?place_id=95217&subview=grid
Niobrara National Scenic River,NIOB,MWR,NE,42.72586213,-99.63194158,https://www.nps.gov/NIOB/index.htm,http://www.inaturalist.org/observations?place_id=95218&subview=grid
Ninety Six National Historic Site,NISI,SER,SC,34.1427351,-82.01636093,https://www.nps.gov/NISI/index.htm,http://www.inaturalist.org/observations?place_id=95287&subview=grid
Noatak National Preserve,NOAT,AKR,AK,68.18143909,-159.3944863,https://www.nps.gov/NOAT/index.htm,http://www.inaturalist.org/observations?place_id=95288&subview=grid
North Cascades National Park,NOCA,PWR,WA,48.83319999,-121.3466097,https://www.nps.gov/NOCA/index.htm,http://www.inaturalist.org/observations?place_id=97435&subview=grid
National Park of American Samoa National Park,NPSA,PWR,AS,-14.23749053,-169.4526019,https://www.nps.gov/NPSA/index.htm,http://www.inaturalist.org/observations?place_id=73645&subview=grid
Obed Wild and Scenic River,OBRI,SER,TN,36.08458016,-84.72244778,https://www.nps.gov/OBRI/index.htm,http://www.inaturalist.org/observations?place_id=95293&subview=grid
Ocmulgee National Monument,OCMU,SER,GA,32.83973829,-83.59675984,https://www.nps.gov/OCMU/index.htm,http://www.inaturalist.org/observations?place_id=65448&subview=grid
Olympic National Park,OLYM,PWR,WA,47.79456549,-123.6183453,https://www.nps.gov/OLYM/index.htm,http://www.inaturalist.org/observations?place_id=69094&subview=grid
Oregon Caves National Monument,ORCA,PWR,OR,42.1031365,-123.4016405,https://www.nps.gov/ORCA/index.htm,http://www.inaturalist.org/observations?place_id=95292&subview=grid
Organ Pipe Cactus National Monument,ORPI,IMR,AZ,32.03570575,-112.8572827,https://www.nps.gov/ORPI/index.htm,http://www.inaturalist.org/observations?place_id=95295&subview=grid
Ozark National Scenic Riverway,OZAR,MWR,MO,37.14716237,-91.19602596,https://www.nps.gov/OZAR/index.htm,http://www.inaturalist.org/observations?place_id=95296&subview=grid
Palo Alto Battlefield National Historical Park,PAAL,IMR,TX,26.02474215,-97.4627218,https://www.nps.gov/PAAL/index.htm,http://www.inaturalist.org/observations?place_id=95297&subview=grid
Pennsylvania Avenue National Historic Site,PAAV,NCR,DC,38.89281849,-77.0177561,https://www.nps.gov/PAAV/index.htm,http://www.inaturalist.org/observations?place_id=97424&subview=grid
Paterson Great Falls National Historical Park,PAGR,NER,NJ,40.91589777,-74.18022529,https://www.nps.gov/PAGR/index.htm,http://www.inaturalist.org/observations?place_id=95298&subview=grid
Padre Island National Seashore,PAIS,IMR,TX,26.70366538,-97.34068068,https://www.nps.gov/PAIS/index.htm,http://www.inaturalist.org/observations?place_id=95300&subview=grid
Pecos National Historical Park,PECO,IMR,NM,35.54978457,-105.690831,https://www.nps.gov/PECO/index.htm,http://www.inaturalist.org/observations?place_id=81179&subview=grid
Petrified Forest National Park,PEFO,IMR,AZ,34.98864305,-109.6747177,https://www.nps.gov/PEFO/index.htm,http://www.inaturalist.org/observations?place_id=57573&subview=grid
Pea Ridge National Military Park,PERI,MWR,AR,36.45477996,-94.03444522,https://www.nps.gov/PERI/index.htm,http://www.inaturalist.org/observations?place_id=95302&subview=grid
Petersburg National Battlefield,PETE,NER,VA,37.22799503,-77.36301724,https://www.nps.gov/PETE/index.htm,http://www.inaturalist.org/observations?place_id=95306&subview=grid
Petroglyph National Monument,PETR,IMR,NM,35.13426644,-106.7522431,https://www.nps.gov/PETR/index.htm,http://www.inaturalist.org/observations?place_id=95307&subview=grid
Perry's Victory and International Peace Memorial,PEVI,MWR,OH,41.65379041,-82.81190443,https://www.nps.gov/PEVI/index.htm,http://www.inaturalist.org/observations?place_id=95308&subview=grid
Hohokam Pima National Monument,PIMA,IMR,AZ,33.18713816,-111.9192739,https://www.nps.gov/PIMA/index.htm,http://www.inaturalist.org/observations?place_id=95243&subview=grid
Pinnacles National Park,PINN,PWR,CA,36.49021462,-121.1809924,https://www.nps.gov/PINN/index.htm,http://www.inaturalist.org/observations?place_id=5737&subview=grid
Pipestone National Monument,PIPE,MWR,MN,44.01351938,-96.32475523,https://www.nps.gov/PIPE/index.htm,http://www.inaturalist.org/observations?place_id=82851&subview=grid
Pictured Rocks National Lakeshore,PIRO,MWR,MI,46.51352837,-86.46694927,https://www.nps.gov/PIRO/index.htm,http://www.inaturalist.org/observations?place_id=95250&subview=grid
Piscataway Park,PISC,NCR,MD,38.68388278,-77.05511417,https://www.nps.gov/PISC/index.htm,http://www.inaturalist.org/observations?place_id=97465&subview=grid
Pipe Spring National Monument,PISP,IMR,AZ,36.86282664,-112.7398567,https://www.nps.gov/PISP/index.htm,http://www.inaturalist.org/observations?place_id=95251&subview=grid
Port Chicago Naval Magazine National Memorial,POCH,PWR,CA,38.05685471,-122.0301603,https://www.nps.gov/POCH/index.htm,http://www.inaturalist.org/observations?place_id=95240&subview=grid
Poverty Point National Monument,POPO,SER,LA,32.63529845,-91.40874101,https://www.nps.gov/POPO/index.htm,http://www.inaturalist.org/observations?place_id=95247&subview=grid
Point Reyes National Seashore,PORE,PWR,CA,38.05500555,-122.8797044,https://www.nps.gov/PORE/index.htm,http://www.inaturalist.org/observations?place_id=5781&subview=grid
Presidio of San Francisco,PRSF,PWR,CA,37.79703697,-122.467126,https://www.nps.gov/PRSF/index.htm,http://www.inaturalist.org/observations?place_id=97447&subview=grid
Prince William Forest Park,PRWI,NCR,VA,38.57850513,-77.39112608,https://www.nps.gov/PRWI/index.htm,http://www.inaturalist.org/observations?place_id=97468&subview=grid
Pu'ukohola Heiau National Historic Site,PUHE,PWR,HI,20.02772183,-155.8211629,https://www.nps.gov/PUHE/index.htm,http://www.inaturalist.org/observations?place_id=72770&subview=grid
Pu'uhonua o Honaunau National Historical Park,PUHO,PWR,HI,19.40903135,-155.8996777,https://www.nps.gov/PUHO/index.htm,http://www.inaturalist.org/observations?place_id=95259&subview=grid
Pullman National Monument,PULL,MWR,IL,41.69429163,-87.60873824,https://www.nps.gov/PULL/index.htm,http://www.inaturalist.org/observations?place_id=95262&subview=grid
Rainbow Bridge National Monument,RABR,IMR,UT,37.07788763,-110.9655099,https://www.nps.gov/RABR/index.htm,http://www.inaturalist.org/observations?place_id=95263&subview=grid
Redwood National Park,REDW,PWR,CA,41.37133097,-124.0316551,https://www.nps.gov/REDW/index.htm,http://www.inaturalist.org/observations?place_id=6021&subview=grid
Richmond National Battlefield Park,RICH,NER,VA,37.57661115,-77.28293615,https://www.nps.gov/RICH/index.htm,http://www.inaturalist.org/observations?place_id=95267&subview=grid
Rio Grande Wild and Scenic River,RIGR,IMR,TX,29.75755733,-102.5289706,https://www.nps.gov/RIGR/index.htm,http://www.inaturalist.org/observations?place_id=95268&subview=grid
River Raisin National Battlefield Park,RIRA,MWR,MI,41.91291082,-83.37620463,https://www.nps.gov/RIRA/index.htm,http://www.inaturalist.org/observations?place_id=95276&subview=grid
Rock Creek Park,ROCR,NCR,DC,38.96274064,-77.04605847,https://www.nps.gov/ROCR/index.htm,http://www.inaturalist.org/observations?place_id=97467&subview=grid
Ross Lake National Recreation Area,ROLA,PWR,WA,48.70586052,-121.1727833,https://www.nps.gov/ROLA/index.htm,http://www.inaturalist.org/observations?place_id=95282&subview=grid
Rocky Mountain National Park,ROMO,IMR,CO,40.35565995,-105.697769,https://www.nps.gov/ROMO/index.htm,http://www.inaturalist.org/observations?place_id=49676&subview=grid
Rosie the Riveter/World War II Home Front National Historical Park,RORI,PWR,CA,37.9086682,-122.366535,https://www.nps.gov/RORI/index.htm,http://www.inaturalist.org/observations?place_id=95284&subview=grid
Roger Williams National Memorial,ROWI,NER,RI,41.82989549,-71.41056665,https://www.nps.gov/ROWI/index.htm,http://www.inaturalist.org/observations?place_id=95299&subview=grid
Ronald Reagan Boyhood Home National Historic Site,RRBH,MWR,IL,41.83621267,-89.48053115,https://www.nps.gov/RRBH/index.htm,http://www.inaturalist.org/observations?place_id=97448&subview=grid
Russell Cave National Monument,RUCA,SER,AL,34.97083923,-85.81858648,https://www.nps.gov/RUCA/index.htm,http://www.inaturalist.org/observations?place_id=95301&subview=grid
San Antonio Missions National Historical Park,SAAN,IMR,TX,29.33273056,-98.45466742,https://www.nps.gov/SAAN/index.htm,http://www.inaturalist.org/observations?place_id=95303&subview=grid
Saint Croix National Scenic Riverway,SACN,MWR,WI,45.98021519,-91.57848434,https://www.nps.gov/SACN/index.htm,http://www.inaturalist.org/observations?place_id=95304&subview=grid
Saint Croix Island International Historic Site,SACR,NER,ME,45.12801161,-67.13302086,https://www.nps.gov/SACR/index.htm,http://www.inaturalist.org/observations?place_id=95305&subview=grid
San Francisco Maritime National Historical Park,SAFR,PWR,CA,37.81006647,-122.4244247,https://www.nps.gov/SAFR/index.htm,http://www.inaturalist.org/observations?place_id=95289&subview=grid
Saint-Gaudens National Historic Site,SAGA,NER,NH,43.50046879,-72.37403165,https://www.nps.gov/SAGA/index.htm,http://www.inaturalist.org/observations?place_id=95309&subview=grid
Saguaro National Park,SAGU,IMR,AZ,32.17893415,-110.6077205,https://www.nps.gov/SAGU/index.htm,http://www.inaturalist.org/observations?place_id=65739&subview=grid
Sagamore Hill National Historic Site,SAHI,NER,NY,40.88557279,-73.49668653,https://www.nps.gov/SAHI/index.htm,http://www.inaturalist.org/observations?place_id=90359&subview=grid
Saugus Iron Works National Historic Site,SAIR,NER,MA,42.46849928,-71.00775926,https://www.nps.gov/SAIR/index.htm,http://www.inaturalist.org/observations?place_id=95311&subview=grid
San Juan Island National Historical Park,SAJH,PWR,WA,48.462114,-123.0049793,https://www.nps.gov/SAJH/index.htm,http://www.inaturalist.org/observations?place_id=78789&subview=grid
San Juan National Historic Site,SAJU,SER,PR,18.46884349,-66.1174902,https://www.nps.gov/SAJU/index.htm,http://www.inaturalist.org/observations?place_id=95313&subview=grid
Salem Maritime National Historic Site,SAMA,NER,MA,42.51959897,-70.88683823,https://www.nps.gov/SAMA/index.htm,http://www.inaturalist.org/observations?place_id=95314&subview=grid
Santa Monica Mountains National Recreation Area,SAMO,PWR,CA,34.08377085,-118.7201796,https://www.nps.gov/SAMO/index.htm,http://www.inaturalist.org/observations?place_id=3730&subview=grid
Sand Creek Massacre National Historic Site,SAND,IMR,CO,38.56413439,-102.5169514,https://www.nps.gov/SAND/index.htm,http://www.inaturalist.org/observations?place_id=95315&subview=grid
Saint Paul's Church National Historic Site,SAPA,NER,NY,40.89283511,-73.82577277,https://www.nps.gov/SAPA/index.htm,http://www.inaturalist.org/observations?place_id=95310&subview=grid
Salinas Pueblo Missions National Monument,SAPU,IMR,NM,34.25942389,-106.0897997,https://www.nps.gov/SAPU/index.htm,http://www.inaturalist.org/observations?place_id=95316&subview=grid
Saratoga National Historical Park,SARA,NER,NY,42.994391,-73.63267353,https://www.nps.gov/SARA/index.htm,http://www.inaturalist.org/observations?place_id=95312&subview=grid
Salt River Bay National Historical Park,SARI,SER,VI,17.77908536,-64.75519358,https://www.nps.gov/SARI/index.htm,http://www.inaturalist.org/observations?place_id=95319&subview=grid
Scotts Bluff National Monument,SCBL,MWR,NE,41.8347614,-103.7072431,https://www.nps.gov/SCBL/index.htm,http://www.inaturalist.org/observations?place_id=95320&subview=grid
Sewall-Belmont House National Historic Site,SEBE,NCR,DC,38.89225166,-77.00361413,https://www.nps.gov/SEBE/index.htm,http://www.inaturalist.org/observations?place_id=97450&subview=grid
Selma to Montgomery National Historic Trail,SEMO,SER,AL,32.27082092,-86.72823702,https://www.nps.gov/SEMO/index.htm,http://www.inaturalist.org/observations?place_id=97451&subview=grid
Sequoia National Park,SEQU,PWR,CA,36.50768379,-118.5752033,https://www.nps.gov/SEQU/index.htm,http://www.inaturalist.org/observations?place_id=95321&subview=grid
Shenandoah National Park,SHEN,NER,VA,38.28106541,-78.67619963,https://www.nps.gov/SHEN/index.htm,http://www.inaturalist.org/observations?place_id=9012&subview=grid
Shiloh National Battlefield,SHIL,SER,MS,35.13852204,-88.34213102,https://www.nps.gov/SHIL/index.htm,http://www.inaturalist.org/observations?place_id=95324&subview=grid
Sitka National Historical Park,SITK,AKR,AK,57.0471392,-135.3155316,https://www.nps.gov/SITK/index.htm,http://www.inaturalist.org/observations?place_id=95325&subview=grid
Sleeping Bear Dunes National Lakeshore,SLBE,MWR,MI,45.11160542,-86.01521888,https://www.nps.gov/SLBE/index.htm,http://www.inaturalist.org/observations?place_id=95326&subview=grid
Springfield Armory National Historic Site,SPAR,NER,MA,42.10830436,-72.5811256,https://www.nps.gov/SPAR/index.htm,http://www.inaturalist.org/observations?place_id=95322&subview=grid
Steamtown National Historic Site,STEA,NER,PA,41.40757514,-75.67037251,https://www.nps.gov/STEA/index.htm,http://www.inaturalist.org/observations?place_id=95323&subview=grid
Statue Of Liberty National Monument,STLI,NER,NY,40.69826908,-74.04173576,https://www.nps.gov/STLI/index.htm,http://www.inaturalist.org/observations?place_id=95327&subview=grid
Stones River National Battlefield,STRI,SER,TN,35.87318749,-86.43408004,https://www.nps.gov/STRI/index.htm,http://www.inaturalist.org/observations?place_id=95328&subview=grid
Sunset Crater Volcano National Monument,SUCR,IMR,AZ,35.37114203,-111.510376,https://www.nps.gov/SUCR/index.htm,http://www.inaturalist.org/observations?place_id=95329&subview=grid
Tallgrass Prairie National Preserve,TAPR,MWR,KS,38.45135719,-96.57387273,https://www.nps.gov/TAPR/index.htm,http://www.inaturalist.org/observations?place_id=95330&subview=grid
Theodore Roosevelt Island National Memorial,THIS,NCR,DC,38.89584149,-77.06241914,https://www.nps.gov/THIS/index.htm,http://www.inaturalist.org/observations?place_id=97442&subview=grid
Thaddeus Kosciuszko National Memorial,THKO,NER,PA,39.94345312,-75.14732045,https://www.nps.gov/THKO/index.htm,http://www.inaturalist.org/observations?place_id=95331&subview=grid
Theodore Roosevelt Birthplace National Historic Site,THRB,NER,NY,40.73859311,-73.98901268,https://www.nps.gov/THRB/index.htm,http://www.inaturalist.org/observations?place_id=95332&subview=grid
Theodore Roosevelt Inaugural National Historic Site,THRI,NER,NY,42.90146781,-78.87248411,https://www.nps.gov/THRI/index.htm,http://www.inaturalist.org/observations?place_id=95088&subview=grid
Theodore Roosevelt National Park,THRO,MWR,ND,46.95359206,-103.4592227,https://www.nps.gov/THRO/index.htm,http://www.inaturalist.org/observations?place_id=72793&subview=grid
Thomas Stone National Historic Site,THST,NER,MD,38.52934415,-77.0378129,https://www.nps.gov/THST/index.htm,http://www.inaturalist.org/observations?place_id=95128&subview=grid
Timpanogos Cave National Monument,TICA,IMR,UT,40.44039704,-111.7093944,https://www.nps.gov/TICA/index.htm,http://www.inaturalist.org/observations?place_id=95146&subview=grid
Timucuan Ecological and Historic Preserve,TIMU,SER,FL,30.43108984,-81.47140832,https://www.nps.gov/TIMU/index.htm,http://www.inaturalist.org/observations?place_id=95147&subview=grid
Tonto National Monument,TONT,IMR,AZ,33.64842885,-111.1135629,https://www.nps.gov/TONT/index.htm,http://www.inaturalist.org/observations?place_id=95162&subview=grid
Tuskegee Airmen National Historic Site,TUAI,SER,AL,32.45538667,-85.67983319,https://www.nps.gov/TUAI/index.htm,http://www.inaturalist.org/observations?place_id=95290&subview=grid
Tuskegee Institute National Historic Site,TUIN,SER,AL,32.42956952,-85.70430589,https://www.nps.gov/TUIN/index.htm,http://www.inaturalist.org/observations?place_id=95333&subview=grid
Tumacacori National Historical Park,TUMA,IMR,AZ,31.57283049,-111.047764,https://www.nps.gov/TUMA/index.htm,http://www.inaturalist.org/observations?place_id=95317&subview=grid
Tupelo National Battlefield,TUPE,SER,MS,34.25557705,-88.73708623,https://www.nps.gov/TUPE/index.htm,http://www.inaturalist.org/observations?place_id=95318&subview=grid
Tule Springs Fossil Beds National Monument,TUSK,PWR,NV,36.40602431,-115.3523139,https://www.nps.gov/TUSK/index.htm,http://www.inaturalist.org/observations?place_id=95334&subview=grid
Tuzigoot National Monument,TUZI,IMR,AZ,34.77296334,-112.027907,https://www.nps.gov/TUZI/index.htm,http://www.inaturalist.org/observations?place_id=95181&subview=grid
Ulysses S. Grant National Historic Site,ULSG,MWR,MO,38.55182373,-90.35169255,https://www.nps.gov/ULSG/index.htm,http://www.inaturalist.org/observations?place_id=95210&subview=grid
Upper Delaware Scenic and Recreational River,UPDE,NER,PA,41.5167673,-75.00963121,https://www.nps.gov/UPDE/index.htm,http://www.inaturalist.org/observations?place_id=95211&subview=grid
Valley Forge National Historical Park,VAFO,NER,PA,40.10061168,-75.44574105,https://www.nps.gov/VAFO/index.htm,http://www.inaturalist.org/observations?place_id=95335&subview=grid
World War II Valor in the Pacific National Monument,VALR,PWR,HI,21.36700014,-157.9385146,https://www.nps.gov/VALR/index.htm,http://www.inaturalist.org/observations?place_id=95340&subview=grid
Vanderbilt Mansion National Historic Site,VAMA,NER,NY,41.79660726,-73.94194571,https://www.nps.gov/VAMA/index.htm,
Vicksburg National Military Park,VICK,SER,LA,32.36451085,-90.84309724,https://www.nps.gov/VICK/index.htm,http://www.inaturalist.org/observations?place_id=95337&subview=grid
Virgin Islands Coral Reef National Monument,VICR,SER,VI,18.27350899,-64.70793993,https://www.nps.gov/VICR/index.htm,http://www.inaturalist.org/observations?place_id=95338&subview=grid
Virgin Islands National Park,VIIS,SER,VI,18.34279345,-64.74194397,https://www.nps.gov/VIIS/index.htm,http://www.inaturalist.org/observations?place_id=95336&subview=grid
Vietnam Veterans Memorial,VIVE,NCR,DC,38.89096297,-77.04765736,https://www.nps.gov/VIVE/index.htm,http://www.inaturalist.org/observations?place_id=97453&subview=grid
Voyageurs National Park,VOYA,MWR,MN,48.48327144,-92.83720626,https://www.nps.gov/VOYA/index.htm,http://www.inaturalist.org/observations?place_id=69101&subview=grid
Washita Battlefield National Historic Site,WABA,IMR,OK,35.62083955,-99.70445142,https://www.nps.gov/WABA/index.htm,http://www.inaturalist.org/observations?place_id=95339&subview=grid
Walnut Canyon National Monument,WACA,IMR,AZ,35.168228,-111.5024244,https://www.nps.gov/WACA/index.htm,http://www.inaturalist.org/observations?place_id=95341&subview=grid
Washington Monument,WAMO,NCR,DC,38.88865172,-77.03546584,https://www.nps.gov/WAMO/index.htm,http://www.inaturalist.org/observations?place_id=97454&subview=grid
War in the Pacific National Historical Park,WAPA,PWR,GU,13.39001068,144.6551139,https://www.nps.gov/WAPA/index.htm,http://www.inaturalist.org/observations?place_id=95342&subview=grid
Weir Farm National Historic Site,WEFA,NER,CT,41.25675816,-73.45648717,https://www.nps.gov/WEFA/index.htm,http://www.inaturalist.org/observations?place_id=72896&subview=grid
White House,WHHO,NCR,DC,38.89703998,-77.03655356,https://www.nps.gov/WHHO/index.htm,http://www.inaturalist.org/observations?place_id=97458&subview=grid
Whiskeytown-Shasta-Trinity National Recreation Area,WHIS,PWR,CA,40.6135802,-122.6022603,https://www.nps.gov/WHIS/index.htm,http://www.inaturalist.org/observations?place_id=4518&subview=grid
Whitman Mission National Historic Site,WHMI,PWR,WA,46.04265092,-118.4654876,https://www.nps.gov/WHMI/index.htm,http://www.inaturalist.org/observations?place_id=95343&subview=grid
White Sands National Monument,WHSA,IMR,NM,32.77908003,-106.3350855,https://www.nps.gov/WHSA/index.htm,http://www.inaturalist.org/observations?place_id=62621&subview=grid
Wind Cave National Park,WICA,MWR,SD,43.5802025,-103.4390924,https://www.nps.gov/WICA/index.htm,http://www.inaturalist.org/observations?place_id=72794&subview=grid
President William Jefferson Clinton Birthplace Home National Historic Site,WICL,MWR,AR,33.66761796,-93.5964128,https://www.nps.gov/WICL/index.htm,http://www.inaturalist.org/observations?place_id=95345&subview=grid
Wilson's Creek National Battlefield,WICR,MWR,MO,37.09998951,-93.40985161,https://www.nps.gov/WICR/index.htm,http://www.inaturalist.org/observations?place_id=95346&subview=grid
William Howard Taft National Historic Site,WIHO,MWR,OH,39.11970352,-84.50758951,https://www.nps.gov/WIHO/index.htm,http://www.inaturalist.org/observations?place_id=95347&subview=grid
Women's Rights National Historical Park,WORI,NER,NY,42.90262007,-76.84451357,https://www.nps.gov/WORI/index.htm,http://www.inaturalist.org/observations?place_id=95291&subview=grid
Wolf Trap Farm Park National Park,WOTR,NCR,VA,38.9379319,-77.26355408,https://www.nps.gov/WOTR/index.htm,http://www.inaturalist.org/observations?place_id=97455&subview=grid
Wright Brothers National Memorial,WRBR,SER,NC,36.01621134,-75.67022037,https://www.nps.gov/WRBR/index.htm,http://www.inaturalist.org/observations?place_id=95344&subview=grid
Wrangell-St. Elias National Park,WRST,AKR,AK,60.69186128,-142.1319886,https://www.nps.gov/WRST/index.htm,http://www.inaturalist.org/observations?place_id=72658&subview=grid
Wupatki National Monument,WUPA,IMR,AZ,35.56118273,-111.4036355,https://www.nps.gov/WUPA/index.htm,http://www.inaturalist.org/observations?place_id=95294&subview=grid
World War II Memorial,WWII,NCR,DC,38.88923917,-77.0403759,https://www.nps.gov/WWII/index.htm,http://www.inaturalist.org/observations?place_id=97470&subview=grid
Yellowstone National Park,YELL,IMR,WY,44.59644457,-110.5471962,https://www.nps.gov/YELL/index.htm,http://www.inaturalist.org/observations?place_id=10211&subview=grid
Yosemite National Park,YOSE,PWR,CA,37.84832509,-119.5569774,https://www.nps.gov/YOSE/index.htm,http://www.inaturalist.org/observations?place_id=68542&subview=grid
Yukon-Charley Rivers National Preserve,YUCH,AKR,AK,65.08978639,-142.7984276,https://www.nps.gov/YUCH/index.htm,http://www.inaturalist.org/observations?place_id=95348&subview=grid
Yucca House National Monument,YUHO,IMR,CO,37.24895444,-108.6859548,https://www.nps.gov/YUHO/index.htm,http://www.inaturalist.org/observations?place_id=95349&subview=grid
Zion National Park,ZION,IMR,UT,37.29823699,-113.026442,https://www.nps.gov/ZION/index.htm,http://www.inaturalist.org/observations?place_id=50634&subview=grid
